#aV2009 12  4  0  0   .00000000      96 DD+AD WGS84 FIT  NGA
## 1560 432000.00000000   900.00000000 55169  .0000000000000
+   32     1  2  3  4  5  6  7  8  9 10 11 12 13 14 15 16 17
+         18 19 20 21 22 23 24 25 26 27 28 29 30 31 32  0  0
+          0  0  0  0  0  0  0  0  0  0  0  0  0  0  0  0  0
+          0  0  0  0  0  0  0  0  0  0  0  0  0  0  0  0  0
+          0  0  0  0  0  0  0  0  0  0  0  0  0  0  0  0  0
++         0  0  0  0  0  0  0  0  0  0  0  0  0  0  0  0  0
++         0  0  0  0  0  0  0  0  0  0  0  0  0  0  0  0  0
++         0  0  0  0  0  0  0  0  0  0  0  0  0  0  0  0  0
++         0  0  0  0  0  0  0  0  0  0  0  0  0  0  0  0  0
++         0  0  0  0  0  0  0  0  0  0  0  0  0  0  0  0  0
%c cc cc ccc ccc cccc cccc cccc cccc ccccc ccccc ccccc ccccc
%c cc cc ccc ccc cccc cccc cccc cccc ccccc ccccc ccccc ccccc
%f  0.0000000  0.000000000  0.00000000000  0.000000000000000
%f  0.0000000  0.000000000  0.00000000000  0.000000000000000
%i    0    0    0    0      0      0      0      0         0
%i    0    0    0    0      0      0      0      0         0
/*      NGA, ST. LOUIS,MO.                                  
/*   EPHEMERIS COMPUTED FROM  3 DAYS OF DATA                
/* CCCCCCCCCCCCCCCCCCCCCCCCCCCCCCCCCCCCCCCCCCCCCCCCCCCCCCCCC
/* CCCCCCCCCCCCCCCCCCCCCCCCCCCCCCCCCCCCCCCCCCCCCCCCCCCCCCCCC
*  2009 12  4  9 45   .00000000                                                 
P  1  17845.574362  19581.741038   2468.762127    -69.023489                    
V  1    -42.165718   4190.988250 -31532.896553      -.025461                    
P  2 -17657.067305  13375.142457  14267.002159    199.402629                    
V  2 -18679.974722     66.809064 -23504.573697       .046555                    
P  3   9899.922045 -23962.185311   4489.316328    483.233286                    
V  3   2414.310264   7079.274501  30481.641554       .050984                    
P  4 -25632.802285   6517.735828   3903.933797   -390.211494                    
V  4  -5505.378874  -2385.254839 -30523.638279      -.185120                    
P  5  -4423.149423  16874.291636  19990.239362    -33.921112                    
V  5 -16736.995655 -19192.228103  12566.093061       .058143                    
P  6  13466.046554 -21533.226417   7769.121220    263.333452                    
V  6    139.803261  10300.241811  29072.182855       .006265                    
P  7 -19673.209639  -8209.156428  15932.599075      6.577230                    
V  7  19727.108270  -4496.658521  21875.045282      -.006348                    
P  8 -26316.649698  -1285.949974   5105.069065       .466905                    
V  8   6275.231825  -1870.060873  31211.327167       .004570                    
P  9   1298.778555  15114.445354 -22461.228507     92.099938                    
V  9 -26490.891354   4575.246692   1642.650098       .021022                    
P 10  -8665.936700  13257.512099  21100.070884    -29.677818                    
V 10 -17027.442202 -21309.349424   6683.625361      -.007349                    
P 11  -6359.256968 -15624.094766 -20762.351384    -32.484519                    
V 11  24448.889067  -9312.535895   -114.256512      -.019606                    
P 12   9206.789034  22914.647571  -9900.494480   -181.220087                    
V 12  -9460.504778  -8599.236971 -28413.424579       .051800                    
P 13  -9719.859705 -12077.056822  21438.626034    306.472020                    
V 13  12177.192002 -24586.299267  -8296.026715       .001425                    
P 14  16712.801022  -5394.013891 -19745.514698    -16.414440                    
V 14  -9484.839312  23529.610852 -14473.951059       .047107                    
P 15  -6760.462438  25347.639112  -3797.454631   -318.919691                    
V 15  -4575.131811   3477.041547  31193.525005       .009482                    
P 16  10924.767397 -10408.868374  21891.518338    -15.615191                    
V 16  16829.155732  21965.242984   2294.685829      -.042308                    
P 17 -17172.561102   6174.058544 -19151.913039    108.517733                    
V 17   8185.306636 -23191.441094 -14958.494192       .036594                    
P 18  19515.481798  16328.583071  -7996.434436     32.246663                    
V 18   3862.182415  10127.537869  28812.032961       .026948                    
P 19   7357.981664 -24642.815735  -5976.818212     -2.089273                    
V 19   6136.604135  -5572.854125  30618.936909      -.020470                    
P 20 -13051.690562 -22415.888929  -5976.958124     66.200958                    
V 20   7286.719801   3602.190668 -30013.390143      -.008371                    
P 21  23327.212307   6038.729204  12133.202168    -25.384124                    
V 21 -14342.484657   4390.908779  25393.998933      -.023973                    
P 22  19462.660043   5042.096099 -17229.585414    184.806209                    
V 22  11549.599663  19121.765905  18391.468568      -.010488                    
P 23  -2275.714410 -21669.964774  14949.003388    385.005951                    
V 23   9120.844224 -16946.387240 -23429.211631      -.006569                    
P 24   9956.001407  13768.966873  20463.534155    242.032342                    
V 24 -25622.687522   3547.013801  10379.611375       .033106                    
P 25 -13834.104845 -10847.562259  20198.263418     42.411010                    
V 25  23975.440749  -6843.065640  13154.006815       .127245                    
P 26  14502.216788   3750.792833 -22503.574488      -.101830                    
V 26 -11606.666864  24543.593038  -3015.194193      -.023267                    
P 27  -2901.002251  15054.980390 -20989.555337    105.383431                    
V 27 -27822.679232   4978.183462   7244.083717       .033473                    
P 28 -19550.090538  -8383.649046 -15648.893046    -24.979335                    
V 28 -10819.836494 -17563.895935  21985.669797       .003054                    
P 29   8455.178407  15569.938900  19887.228249     79.355312                    
V 29 -10963.681591  22553.477083 -13013.702287       .031377                    
P 30  17277.749254  20212.628458   -164.610548    198.631600                    
V 30  -2091.587484   2133.999934 -31575.038940       .032284                    
P 31  24517.892842  -8144.699833   6706.050519    -59.550761                    
V 31   8399.926740    901.456103 -30457.977951       .009414                    
P 32  -5129.352889 -23062.831312 -12062.411438    145.031281                    
V 32  10530.043086  11969.150757 -26246.113533      -.077315                    
EOF
